GLOBALSTAR M063         
1 26081U 00008A   25308.15134161 -.00000078  00000+0  74287-4 0  9992
2 26081  51.9930 102.9515 0004182 209.6442 321.6001 11.86176988174180
GLOBALSTAR M062         
1 26082U 00008B   25307.68861997 -.00000053  00000+0  32517-3 0  9996
2 26082  51.9862  45.5449 0007445  55.5571 111.3851 12.43476041513977
GLOBALSTAR M060         
1 26083U 00008C   25307.96325580 -.00000133  00000+0 -42274-3 0  9992
2 26083  52.0048  24.5214 0003493  59.5728 110.8579 12.17668097169399
GLOBALSTAR M064         
1 26084U 00008D   25308.00080378 -.00000071  00000+0  17840-3 0  9993
2 26084  52.0017 200.5317 0001662   3.2141 356.8702 11.88537735183721
GLOBALSTAR M065         
1 31571U 07020A   25307.84486838 -.00000029  00000+0  41754-3 0  9997
2 31571  51.9869 161.1910 0009015 256.9518 115.9585 12.62012591851048
GLOBALSTAR M069         
1 31573U 07020C   25307.94216726 -.00000043  00000+0  45735-3 0  9996
2 31573  52.0008 169.6556 0002762  57.1029 316.0496 12.23462899851239
GLOBALSTAR M072         
1 31574U 07020D   25307.86167750 -.00000062  00000+0  30493-3 0  9996
2 31574  51.9954 340.1234 0001017 225.4472 305.7524 11.91652799848115
GLOBALSTAR M071         
1 31576U 07020F   25308.02756588  .00000020  00000+0  10966-2 0  9995
2 31576  52.0047 198.9747 0001755  50.4823  54.2674 12.18260869511982
